NORAD_CAT_ID,OBJECT_NAME,OBJECT_TYPE,EPOCH,MEAN_MOTION,ECCENTRICITY,INCLINATION,RA_OF_ASC_NODE,ARG_OF_PERICENTER,MEAN_ANOMALY,BSTAR,MEAN_MOTION_DOT,MEAN_MOTION_DDOT,TLE_LINE0,TLE_LINE1,TLE_LINE2,SEMIMAJOR_AXIS,PERIOD,APOGEE,PERIGEE,DECAYED
56812.0,STARLINK-6065,PAYLOAD,2024-03-06 05:53:41,14.98340553,0.0002752,70.0015,13.6141,260.7385,99.3463,0.00014598,1.65e-05,0.0,0 STARLINK-6065,1 56812U 23078AX  24066.24562123  .00001650  00000-0  14598-3 0  9997,2 56812  70.0015  13.6141 0002752 260.7385  99.3463 14.98340553 43317,6950.16,96.106,573.938,570.113,0.0
56812.0,STARLINK-6065,PAYLOAD,2024-03-07 04:19:34,14.98336752,0.0003069,70.0021,11.2588,270.4383,89.6424,-2.5413e-05,-3.96e-06,0.0,0 STARLINK-6065,1 56812U 23078AX  24067.18026394 -.00000396  00000-0 -25413-4 0  9993,2 56812  70.0021  11.2588 0003069 270.4383  89.6424 14.98336752 43710,6950.172,96.107,574.17,569.904,0.0
56812.0,STARLINK-6065,PAYLOAD,2024-03-07 05:55:42,14.9833652,0.0003073,70.0022,11.0907,271.0595,89.0212,-2.5084e-05,-3.92e-06,0.0,0 STARLINK-6065,1 56812U 23078AX  24067.24702387 -.00000392  00000-0 -25084-4 0  9993,2 56812  70.0022  11.0907 0003073 271.0595  89.0212 14.98336520 43465,6950.173,96.107,574.174,569.902,0.0
56812.0,STARLINK-6065,PAYLOAD,2024-03-08 05:57:43,14.98339321,0.0002841,70.0019,8.5663,268.9622,91.1211,-8.4182e-06,-1.93e-06,0.0,0 STARLINK-6065,1 56812U 23078AX  24068.24841808 -.00000193  00000-0 -84182-5 0  9990,2 56812  70.0019   8.5663 0002841 268.9622  91.1211 14.98339321 43879,6950.164,96.106,574.004,570.055,0.0
56812.0,STARLINK-6065,PAYLOAD,2024-03-09 04:23:36,14.98330961,0.0002774,70.0018,6.2098,270.918,89.1662,-2.9554e-05,-4.46e-06,0.0,0 STARLINK-6065,1 56812U 23078AX  24069.18306128 -.00000446  00000-0 -29554-4 0  9997,2 56812  70.0018   6.2098 0002774 270.9180  89.1662 14.98330961 44017,6950.19,96.107,573.983,570.127,0.0
56812.0,STARLINK-6065,PAYLOAD,2024-03-09 12:24:16,14.9832992,0.0002656,70.0023,5.3685,270.9314,89.1541,-1.5912e-05,-2.83e-06,0.0,0 STARLINK-6065,1 56812U 23078AX  24069.51686136 -.00000283  00000-0 -15912-4 0  9996,2 56812  70.0023   5.3685 0002656 270.9314  89.1541 14.98329920 43808,6950.193,96.107,573.904,570.212,0.0
56812.0,STARLINK-6065,PAYLOAD,2024-03-09 18:48:48,14.98328815,0.0002915,70.0021,4.6946,270.0804,90.0021,5.0766e-05,5.13e-06,0.0,0 STARLINK-6065,1 56812U 23078AX  24069.78389909  .00000513  00000-0  50766-4 0  9993,2 56812  70.0021   4.6946 0002915 270.0804  90.0021 14.98328815 43841,6950.197,96.107,574.088,570.036,0.0
56812.0,STARLINK-6065,PAYLOAD,2024-03-10 12:26:17,14.98330885,0.0002559,70.0025,2.8427,272.9873,87.0993,-4.3126e-05,-6.07e-06,0.0,0 STARLINK-6065,1 56812U 23078AX  24070.51826002 -.00000607  00000-0 -43126-4 0  9994,2 56812  70.0025   2.8427 0002559 272.9873  87.0993 14.98330885 44216,6950.19,96.107,573.834,570.277,0.0
56812.0,STARLINK-6065,PAYLOAD,2024-03-10 22:03:06,14.98337238,0.0002474,70.0022,1.8332,273.2001,86.8875,-0.0002027,-2.511e-05,0.0,0 STARLINK-6065,1 56812U 23078AX  24070.91882221 -.00002511  00000-0 -20270-3 0  9993,2 56812  70.0022   1.8332 0002474 273.2001  86.8875 14.98337238 44013,6950.171,96.107,573.755,570.316,0.0
56812.0,STARLINK-6065,PAYLOAD,2024-03-11 12:28:18,14.98327634,0.0002673,70.0017,0.3192,267.1996,92.8858,-7.9336e-05,-1.039e-05,0.0,0 STARLINK-6065,1 56812U 23078AX  24071.51966296 -.00001039  00000-0 -79336-4 0  9997,2 56812  70.0017   0.3192 0002673 267.1996  92.8858 14.98327634 44366,6950.2,96.107,573.923,570.207,0.0
56812.0,STARLINK-6065,PAYLOAD,2024-03-12 18:54:51,14.98327832,0.0002734,70.001,357.1206,267.6849,92.3997,8.3495e-05,9.03e-06,0.0,0 STARLINK-6065,1 56812U 23078AX  24072.78809898  .00000903  00000-0  83495-4 0  9999,2 56812  70.0010 357.1206 0002734 267.6849  92.3997 14.98327832 44299,6950.2,96.107,573.965,570.164,0.0
56812.0,STARLINK-6065,PAYLOAD,2024-03-13 04:31:39,14.983326,0.0002779,70.0009,356.1103,268.0826,92.0014,7.3815e-05,7.88e-06,0.0,0 STARLINK-6065,1 56812U 23078AX  24073.18865616  .00000788  00000-0  73815-4 0  9990,2 56812  70.0009 356.1103 0002779 268.0826  92.0014 14.98332600 44613,6950.185,96.107,573.981,570.118,0.0
56812.0,STARLINK-6065,PAYLOAD,2024-03-13 12:32:20,14.98330278,0.0002706,70.0013,355.2671,270.2352,89.8497,5.1578e-05,5.23e-06,0.0,0 STARLINK-6065,1 56812U 23078AX  24073.52245812  .00000523  00000-0  51578-4 0  9997,2 56812  70.0013 355.2671 0002706 270.2352  89.8497 14.98330278 44402,6950.192,96.107,573.938,570.176,0.0
56812.0,STARLINK-6065,PAYLOAD,2024-03-13 22:09:08,14.98329316,0.0002706,70.0011,354.2574,270.2465,89.8384,2.7821e-05,2.39e-06,0.0,0 STARLINK-6065,1 56812U 23078AX  24073.92301923  .00000239  00000-0  27821-4 0  9995,2 56812  70.0011 354.2574 0002706 270.2465  89.8384 14.98329316 44468,6950.195,96.107,573.941,570.179,0.0
56812.0,STARLINK-6065,PAYLOAD,2024-03-14 04:33:40,14.98332302,0.0002675,70.001,353.5842,270.5415,89.5437,5.5886e-05,5.74e-06,0.0,0 STARLINK-6065,1 56812U 23078AX  24074.19005634  .00000574  00000-0  55886-4 0  9999,2 56812  70.0010 353.5842 0002675 270.5415  89.5437 14.98332302 44768,6950.186,96.107,573.91,570.192,0.0
56812.0,STARLINK-6065,PAYLOAD,2024-03-14 20:35:01,14.98328548,0.0002586,70.0011,351.9009,271.1415,88.9448,-5.9448e-05,-8.02e-06,0.0,0 STARLINK-6065,1 56812U 23078AX  24074.85766153 -.00000802  00000-0 -59448-4 0  9996,2 56812  70.0011 351.9009 0002586 271.1415  88.9448 14.98328548 44867,6950.197,96.107,573.86,570.265,0.0
56812.0,STARLINK-6065,PAYLOAD,2024-03-14 22:11:10,14.98328044,0.0002601,70.0011,351.7326,270.7245,89.3616,-6.5376e-05,-8.73e-06,0.0,0 STARLINK-6065,1 56812U 23078AX  24074.92442199 -.00000873  00000-0 -65376-4 0  9990,2 56812  70.0011 351.7326 0002601 270.7245  89.3616 14.98328044 44617,6950.199,96.107,573.872,570.256,0.0
56812.0,STARLINK-6065,PAYLOAD,2024-03-15 22:13:10,14.98332774,0.0002691,70.0009,349.2081,270.4931,89.592,1.2664e-05,5.8e-07,0.0,0 STARLINK-6065,1 56812U 23078AX  24075.92581634  .00000058  00000-0  12664-4 0  9994,2 56812  70.0009 349.2081 0002691 270.4931  89.5920 14.98332774 44763,6950.184,96.107,573.92,570.179,0.0
56812.0,STARLINK-6065,PAYLOAD,2024-03-16 04:37:42,14.98335155,0.0002709,70.001,348.5364,262.1325,97.9526,1.176e-05,4.7e-07,0.0,0 STARLINK-6065,1 56812U 23078AX  24076.19285349  .00000047  00000-0  11760-4 0  9992,2 56812  70.0010 348.5364 0002709 262.1325  97.9526 14.98335155 45061,6950.177,96.107,573.925,570.159,0.0
56812.0,STARLINK-6065,PAYLOAD,2024-03-16 20:39:03,14.98325522,0.0002756,70.0009,346.853,260.3651,99.7196,1.3402e-05,6.7e-07,0.0,0 STARLINK-6065,1 56812U 23078AX  24076.86045889  .00000067  00000-0  13402-4 0  9996,2 56812  70.0009 346.8530 0002756 260.3651  99.7196 14.98325522 45160,6950.207,96.107,573.987,570.156,0.0
56812.0,STARLINK-6065,PAYLOAD,2024-03-16 22:15:11,14.98325491,0.0002759,70.0009,346.6847,260.281,99.8038,1.2157e-05,5.2e-07,0.0,0 STARLINK-6065,1 56812U 23078AX  24076.92721907  .00000052  00000-0  12157-4 0  9995,2 56812  70.0009 346.6847 0002759 260.2810  99.8038 14.98325491 44911,6950.207,96.107,573.989,570.154,0.0
56812.0,STARLINK-6065,PAYLOAD,2024-03-17 03:03:35,14.98326329,0.0002737,70.001,346.1798,260.9381,99.1468,2.0696e-05,1.54e-06,0.0,0 STARLINK-6065,1 56812U 23078AX  24077.12749873  .00000154  00000-0  20696-4 0  9990,2 56812  70.0010 346.1798 0002737 260.9381  99.1468 14.98326329 44943,6950.204,96.107,573.972,570.167,0.0
56812.0,STARLINK-6065,PAYLOAD,2024-03-17 20:41:04,14.98330861,0.0002696,70.001,344.3278,260.114,99.9715,-3.8977e-05,-5.58e-06,0.0,0 STARLINK-6065,1 56812U 23078AX  24077.86185760 -.00000558  00000-0 -38977-4 0  9991,2 56812  70.0010 344.3278 0002696 260.1140  99.9715 14.98330861 45316,6950.19,96.107,573.929,570.181,0.0
56812.0,STARLINK-6065,PAYLOAD,2024-03-17 22:17:12,14.98330938,0.0002692,70.001,344.1595,260.0769,100.0086,-3.6793e-05,-5.32e-06,0.0,0 STARLINK-6065,1 56812U 23078AX  24077.92861744 -.00000532  00000-0 -36793-4 0  9997,2 56812  70.0010 344.1595 0002692 260.0769 100.0086 14.98330938 45060,6950.19,96.107,573.926,570.184,0.0
56812.0,STARLINK-6065,PAYLOAD,2024-03-18 03:05:36,14.98331764,0.000279,70.0007,343.6544,265.2607,94.8233,-3.3157e-05,-4.89e-06,0.0,0 STARLINK-6065,1 56812U 23078AX  24078.12889688 -.00000489  00000-0 -33157-4 0  9999,2 56812  70.0007 343.6544 0002790 265.2607  94.8233 14.98331764 45096,6950.187,96.107,573.992,570.113,0.0
56812.0,STARLINK-6065,PAYLOAD,2024-03-18 20:43:05,14.98328911,0.0002909,70.0004,341.803,266.8779,93.2047,1.1195e-05,4.1e-07,0.0,0 STARLINK-6065,1 56812U 23078AX  24078.86325689  .00000041  00000-0  11195-4 0  9996,2 56812  70.0004 341.8030 0002909 266.8779  93.2047 14.98328911 45469,6950.196,96.107,574.083,570.039,0.0
56812.0,STARLINK-6065,PAYLOAD,2024-03-18 22:19:13,14.98328961,0.0002904,70.0004,341.6346,266.8243,93.2583,1.2355e-05,5.4e-07,0.0,0 STARLINK-6065,1 56812U 23078AX  24078.93001686  .00000054  00000-0  12355-4 0  9995,2 56812  70.0004 341.6346 0002904 266.8243  93.2583 14.98328961 45211,6950.196,96.107,574.079,570.043,0.0
56812.0,STARLINK-6065,PAYLOAD,2024-03-19 03:07:37,14.98331331,0.0002909,70.0003,341.1294,265.3062,94.7764,5.9792e-05,6.21e-06,0.0,0 STARLINK-6065,1 56812U 23078AX  24079.13029393  .00000621  00000-0  59792-4 0  9999,2 56812  70.0003 341.1294 0002909 265.3062  94.7764 14.98331331 45240,6950.189,96.107,574.076,570.032,0.0
56812.0,STARLINK-6065,PAYLOAD,2024-03-19 20:45:05,14.98337666,0.0002935,70.0001,339.2767,265.2154,94.867,8.4801e-05,9.19e-06,0.0,0 STARLINK-6065,1 56812U 23078AX  24079.86464680  .00000919  00000-0  84801-4 0  9990,2 56812  70.0001 339.2767 0002935 265.2154  94.8670 14.98337666 45616,6950.169,96.107,574.074,569.994,0.0
56812.0,STARLINK-6065,PAYLOAD,2024-03-20 03:09:37,14.98341726,0.0002882,70.0,338.6037,265.8602,94.2227,0.00012104,1.352e-05,0.0,0 STARLINK-6065,1 56812U 23078AX  24080.13168148  .00001352  00000-0  12104-3 0  9990,2 56812  70.0000 338.6037 0002882 265.8602  94.2227 14.98341726 45392,6950.157,96.106,574.025,570.019,0.0
